CCSDS_OMM_VERS = 2.0
CREATION_DATE  = 
ORIGINATOR     = 

OBJECT_NAME    = STARLINK-36571
OBJECT_ID      = 2026-016U
CENTER_NAME    = EARTH
REF_FRAME      = TEME
TIME_SYSTEM    = UTC
MEAN_ELEMENT_THEORY = SGP/SGP4

EPOCH          = 2026-02-02T06:00:02.000160
MEAN_MOTION    = 15.97582796
ECCENTRICITY   = .00012936
INCLINATION    = 97.2786
RA_OF_ASC_NODE = 91.8259
ARG_OF_PERICENTER = 62.9102
MEAN_ANOMALY   = 302.4917

EPHEMERIS_TYPE = 0
CLASSIFICATION_TYPE = U
NORAD_CAT_ID   = 67579
ELEMENT_SET_NO = 999
REV_AT_EPOCH   = 235
BSTAR          = -.37627536E-2
MEAN_MOTION_DOT = -.1652933E-1
MEAN_MOTION_DDOT = .80972325E-3

CCSDS_OMM_VERS = 2.0
CREATION_DATE  = 
ORIGINATOR     = 

OBJECT_NAME    = STARLINK-36612
OBJECT_ID      = 2026-016V
CENTER_NAME    = EARTH
REF_FRAME      = TEME
TIME_SYSTEM    = UTC
MEAN_ELEMENT_THEORY = SGP/SGP4

EPOCH          = 2026-02-02T06:00:02.000160
MEAN_MOTION    = 15.97765288
ECCENTRICITY   = .00012209
INCLINATION    = 97.2784
RA_OF_ASC_NODE = 91.8268
ARG_OF_PERICENTER = 64.6463
MEAN_ANOMALY   = 303.5338

EPHEMERIS_TYPE = 0
CLASSIFICATION_TYPE = U
NORAD_CAT_ID   = 67580
ELEMENT_SET_NO = 999
REV_AT_EPOCH   = 235
BSTAR          = -.37584713E-2
MEAN_MOTION_DOT = -.1667475E-1
MEAN_MOTION_DDOT = .82469594E-3

CCSDS_OMM_VERS = 2.0
CREATION_DATE  = 
ORIGINATOR     = 

OBJECT_NAME    = STARLINK-36632
OBJECT_ID      = 2026-016W
CENTER_NAME    = EARTH
REF_FRAME      = TEME
TIME_SYSTEM    = UTC
MEAN_ELEMENT_THEORY = SGP/SGP4

EPOCH          = 2026-02-02T06:00:02.000160
MEAN_MOTION    = 15.98261585
ECCENTRICITY   = .00012887
INCLINATION    = 97.2783
RA_OF_ASC_NODE = 91.8304
ARG_OF_PERICENTER = 60.0216
MEAN_ANOMALY   = 315.7854

EPHEMERIS_TYPE = 0
CLASSIFICATION_TYPE = U
NORAD_CAT_ID   = 67581
ELEMENT_SET_NO = 999
REV_AT_EPOCH   = 235
BSTAR          = -.35755987E-2
MEAN_MOTION_DOT = -.1630769E-1
MEAN_MOTION_DDOT = .79552569E-3

CCSDS_OMM_VERS = 2.0
CREATION_DATE  = 
ORIGINATOR     = 

OBJECT_NAME    = STARLINK-36609
OBJECT_ID      = 2026-016X
CENTER_NAME    = EARTH
REF_FRAME      = TEME
TIME_SYSTEM    = UTC
MEAN_ELEMENT_THEORY = SGP/SGP4

EPOCH          = 2026-02-02T06:00:02.000160
MEAN_MOTION    = 15.98426317
ECCENTRICITY   = .00012643
INCLINATION    = 97.2781
RA_OF_ASC_NODE = 91.8313
ARG_OF_PERICENTER = 62.2567
MEAN_ANOMALY   = 316.2115

EPHEMERIS_TYPE = 0
CLASSIFICATION_TYPE = U
NORAD_CAT_ID   = 67582
ELEMENT_SET_NO = 999
REV_AT_EPOCH   = 235
BSTAR          = -.35267865E-2
MEAN_MOTION_DOT = -.1623315E-1
MEAN_MOTION_DDOT = .79020382E-3

CCSDS_OMM_VERS = 2.0
CREATION_DATE  = 
ORIGINATOR     = 

OBJECT_NAME    = STARLINK-36577
OBJECT_ID      = 2026-016Y
CENTER_NAME    = EARTH
REF_FRAME      = TEME
TIME_SYSTEM    = UTC
MEAN_ELEMENT_THEORY = SGP/SGP4

EPOCH          = 2026-02-02T06:00:02.000160
MEAN_MOTION    = 15.97994623
ECCENTRICITY   = .00012463
INCLINATION    = 97.2778
RA_OF_ASC_NODE = 91.8282
ARG_OF_PERICENTER = 65.6353
MEAN_ANOMALY   = 306.1401

EPHEMERIS_TYPE = 0
CLASSIFICATION_TYPE = U
NORAD_CAT_ID   = 67583
ELEMENT_SET_NO = 999
REV_AT_EPOCH   = 235
BSTAR          = -.36571108E-2
MEAN_MOTION_DOT = -.1643394E-1
MEAN_MOTION_DDOT = .80466484E-3

CCSDS_OMM_VERS = 2.0
CREATION_DATE  = 
ORIGINATOR     = 

OBJECT_NAME    = STARLINK-36419
OBJECT_ID      = 2026-016Z
CENTER_NAME    = EARTH
REF_FRAME      = TEME
TIME_SYSTEM    = UTC
MEAN_ELEMENT_THEORY = SGP/SGP4

EPOCH          = 2026-02-02T06:00:02.000160
MEAN_MOTION    = 15.98616753
ECCENTRICITY   = .00012676
INCLINATION    = 97.2781
RA_OF_ASC_NODE = 91.8326
ARG_OF_PERICENTER = 56.1609
MEAN_ANOMALY   = 325.2343

EPHEMERIS_TYPE = 0
CLASSIFICATION_TYPE = U
NORAD_CAT_ID   = 67584
ELEMENT_SET_NO = 999
REV_AT_EPOCH   = 235
BSTAR          = -.35018052E-2
MEAN_MOTION_DOT = -.162886E-1
MEAN_MOTION_DDOT = .79691857E-3

CCSDS_OMM_VERS = 2.0
CREATION_DATE  = 
ORIGINATOR     = 

OBJECT_NAME    = STARLINK-36560
OBJECT_ID      = 2026-016AA
CENTER_NAME    = EARTH
REF_FRAME      = TEME
TIME_SYSTEM    = UTC
MEAN_ELEMENT_THEORY = SGP/SGP4

EPOCH          = 2026-02-02T06:00:02.000160
MEAN_MOTION    = 15.98881129
ECCENTRICITY   = .0001316
INCLINATION    = 97.2779
RA_OF_ASC_NODE = 91.8343
ARG_OF_PERICENTER = 61.1452
MEAN_ANOMALY   = 324.2309

EPHEMERIS_TYPE = 0
CLASSIFICATION_TYPE = U
NORAD_CAT_ID   = 67585
ELEMENT_SET_NO = 999
REV_AT_EPOCH   = 229
BSTAR          = -.34230933E-2
MEAN_MOTION_DOT = -.161599E-1
MEAN_MOTION_DDOT = .78754014E-3

CCSDS_OMM_VERS = 2.0
CREATION_DATE  = 
ORIGINATOR     = 

OBJECT_NAME    = CZ-2C DEB
OBJECT_ID      = 2026-009C
CENTER_NAME    = EARTH
REF_FRAME      = TEME
TIME_SYSTEM    = UTC
MEAN_ELEMENT_THEORY = SGP/SGP4

EPOCH          = 2026-02-02T04:07:19.223328
MEAN_MOTION    = 15.11236569
ECCENTRICITY   = .01126379
INCLINATION    = 97.2277
RA_OF_ASC_NODE = 107.0034
ARG_OF_PERICENTER = 159.8708
MEAN_ANOMALY   = 200.7019

EPHEMERIS_TYPE = 0
CLASSIFICATION_TYPE = U
NORAD_CAT_ID   = 67586
ELEMENT_SET_NO = 999
REV_AT_EPOCH   = 271
BSTAR          = .27007273E-2
MEAN_MOTION_DOT = .53151E-3
MEAN_MOTION_DDOT = 0

CCSDS_OMM_VERS = 2.0
CREATION_DATE  = 
ORIGINATOR     = 

OBJECT_NAME    = CZ-2C DEB
OBJECT_ID      = 2026-009D
CENTER_NAME    = EARTH
REF_FRAME      = TEME
TIME_SYSTEM    = UTC
MEAN_ELEMENT_THEORY = SGP/SGP4

EPOCH          = 2026-02-02T03:35:40.771680
MEAN_MOTION    = 15.12865443
ECCENTRICITY   = .01089869
INCLINATION    = 97.6748
RA_OF_ASC_NODE = 107.9518
ARG_OF_PERICENTER = 165.2846
MEAN_ANOMALY   = 195.1601

EPHEMERIS_TYPE = 0
CLASSIFICATION_TYPE = U
NORAD_CAT_ID   = 67587
ELEMENT_SET_NO = 999
REV_AT_EPOCH   = 271
BSTAR          = .21286323E-2
MEAN_MOTION_DOT = .43461E-3
MEAN_MOTION_DDOT = 0

CCSDS_OMM_VERS = 2.0
CREATION_DATE  = 
ORIGINATOR     = 

OBJECT_NAME    = NAVSTAR 85 (USA 581)
OBJECT_ID      = 2026-017A
CENTER_NAME    = EARTH
REF_FRAME      = TEME
TIME_SYSTEM    = UTC
MEAN_ELEMENT_THEORY = SGP/SGP4

EPOCH          = 2026-01-28T18:17:22.544736
MEAN_MOTION    = 4.03376750
ECCENTRICITY   = .59408377
INCLINATION    = 55.0007
RA_OF_ASC_NODE = 99.1396
ARG_OF_PERICENTER = 270.1415
MEAN_ANOMALY   = 26.1406

EPHEMERIS_TYPE = 0
CLASSIFICATION_TYPE = U
NORAD_CAT_ID   = 67588
ELEMENT_SET_NO = 999
REV_AT_EPOCH   = 4
BSTAR          = .32093292E-3
MEAN_MOTION_DOT = .346E-5
MEAN_MOTION_DDOT = 0

CCSDS_OMM_VERS = 2.0
CREATION_DATE  = 
ORIGINATOR     = 

OBJECT_NAME    = NEONSAT-1A
OBJECT_ID      = 2026-019A
CENTER_NAME    = EARTH
REF_FRAME      = TEME
TIME_SYSTEM    = UTC
MEAN_ELEMENT_THEORY = SGP/SGP4

EPOCH          = 2026-02-02T06:30:37.178496
MEAN_MOTION    = 15.07517763
ECCENTRICITY   = .00118604
INCLINATION    = 97.4099
RA_OF_ASC_NODE = 158.1286
ARG_OF_PERICENTER = 298.8894
MEAN_ANOMALY   = 61.1143

EPHEMERIS_TYPE = 0
CLASSIFICATION_TYPE = U
NORAD_CAT_ID   = 67614
ELEMENT_SET_NO = 999
REV_AT_EPOCH   = 48
BSTAR          = .34007385E-3
MEAN_MOTION_DOT = .5112E-4
MEAN_MOTION_DDOT = 0

CCSDS_OMM_VERS = 2.0
CREATION_DATE  = 
ORIGINATOR     = 

OBJECT_NAME    = ELECTRON R/B
OBJECT_ID      = 2026-019B
CENTER_NAME    = EARTH
REF_FRAME      = TEME
TIME_SYSTEM    = UTC
MEAN_ELEMENT_THEORY = SGP/SGP4

EPOCH          = 2026-01-31T17:53:30.098400
MEAN_MOTION    = 15.69235212
ECCENTRICITY   = .0259152
INCLINATION    = 97.4470
RA_OF_ASC_NODE = 156.8497
ARG_OF_PERICENTER = 220.4311
MEAN_ANOMALY   = 137.7440

EPHEMERIS_TYPE = 0
CLASSIFICATION_TYPE = U
NORAD_CAT_ID   = 67615
ELEMENT_SET_NO = 999
REV_AT_EPOCH   = 26
BSTAR          = .25520631E-3
MEAN_MOTION_DOT = .250226E-2
MEAN_MOTION_DDOT = .2283743E-5

