STARLINK-36571          
1 67579U 26016U   26033.25002315 -.01652933  80972-3 -37628-2 0  9999
2 67579  97.2786  91.8259 0001293  62.9102 302.4917 15.97582796  2359
STARLINK-36612          
1 67580U 26016V   26033.25002315 -.01667475  82470-3 -37585-2 0  9995
2 67580  97.2784  91.8268 0001220  64.6463 303.5338 15.97765288  2356
STARLINK-36632          
1 67581U 26016W   26033.25002315 -.01630769  79553-3 -35756-2 0  9998
2 67581  97.2783  91.8304 0001288  60.0216 315.7854 15.98261585  2357
STARLINK-36609          
1 67582U 26016X   26033.25002315 -.01623315  79020-3 -35268-2 0  9995
2 67582  97.2781  91.8313 0001264  62.2567 316.2115 15.98426317  2355
STARLINK-36577          
1 67583U 26016Y   26033.25002315 -.01643394  80466-3 -36571-2 0  9999
2 67583  97.2778  91.8282 0001246  65.6353 306.1401 15.97994623  2352
STARLINK-36419          
1 67584U 26016Z   26033.25002315 -.01628860  79692-3 -35018-2 0  9995
2 67584  97.2781  91.8326 0001267  56.1609 325.2343 15.98616753  2351
STARLINK-36560          
1 67585U 26016AA  26033.25002315 -.01615990  78754-3 -34231-2 0  9990
2 67585  97.2779  91.8343 0001316  61.1452 324.2309 15.98881129  2290
CZ-2C DEB               
1 67586U 26009C   26033.17175027  .00053151  00000+0  27007-2 0  9995
2 67586  97.2277 107.0034 0112637 159.8708 200.7019 15.11236569  2719
CZ-2C DEB               
1 67587U 26009D   26033.14977745  .00043461  00000+0  21286-2 0  9996
2 67587  97.6748 107.9518 0108986 165.2846 195.1601 15.12865443  2713
NAVSTAR 85 (USA 581)    
1 67588U 26017A   26028.76206649  .00000346  00000+0  32093-3 0  9990
2 67588  55.0007  99.1396 5940837 270.1415  26.1406  4.03376750    44
NEONSAT-1A              
1 67614U 26019A   26033.27126364  .00005112  00000+0  34007-3 0  9992
2 67614  97.4099 158.1286 0011860 298.8894  61.1143 15.07517763   489
ELECTRON R/B            
1 67615U 26019B   26031.74548725  .00250226  22837-5  25521-3 0  9999
2 67615  97.4470 156.8497 0259152 220.4311 137.7440 15.69235212   265
